start=new Date('2022-06-06T00:00:00.000Z').valueOf();
sats=[{"EPOCH":"2022-06-05T22:00:00.999936","ECCENTRICITY":"0.00015650","APOAPSIS":"437.005","GP_ID":"205417174","ELEMENT_SET_NO":"999","OBJECT_NAME":"STARLINK-3775","OBJECT_TYPE":"PAYLOAD","RA_OF_ASC_NODE":"154.3391","CLASSIFICATION_TYPE":"U","TIME_SYSTEM":"UTC","SITE":"AFETR","ARG_OF_PERICENTER":"42.7111","CENTER_NAME":"EARTH","COUNTRY_CODE":"US","DECAY_DATE":null,"MEAN_MOTION":"15.43449978","TLE_LINE1":"1 52285U 22041AA  22156.91667824 -.00720617  00000-0 -17146-1 0  9995","MEAN_ELEMENT_THEORY":"SGP4","INCLINATION":"53.2174","TLE_LINE2":"2 52285  53.2174 154.3391 0001565  42.7111  70.7627 15.43449978  8309","FILE":"3482681","RCS_SIZE":"LARGE","MEAN_MOTION_DDOT":"0.0000000000000","REV_AT_EPOCH":"830","PERIOD":"93.297","LAUNCH_DATE":"2022-04-21","REF_FRAME":"TEME","NORAD_CAT_ID":"52285","BSTAR":"-0.01714600000000","EPHEMERIS_TYPE":"0","MEAN_MOTION_DOT":"-0.00720617","SEMIMAJOR_AXIS":"6814.073","MEAN_ANOMALY":"70.7627","PERIAPSIS":"434.872","OBJECT_ID":"2022-041AA"},{"EPOCH":"2022-06-05T22:00:00.999936","ECCENTRICITY":"0.00040620","APOAPSIS":"360.280","GP_ID":"205416659","ELEMENT_SET_NO":"999","OBJECT_NAME":"STARLINK-3802","RA_OF_ASC_NODE":"150.9661","OBJECT_TYPE":"PAYLOAD","CLASSIFICATION_TYPE":"U","TIME_SYSTEM":"UTC","SITE":"AFETR","ARG_OF_PERICENTER":"323.2324","CENTER_NAME":"EARTH","COUNTRY_CODE":"US","DECAY_DATE":null,"TLE_LINE1":"1 52286U 22041AB  22156.91667824 -.00702212  00000-0 -60926-2 0  9992","MEAN_MOTION":"15.70473961","MEAN_ELEMENT_THEORY":"SGP4","INCLINATION":"53.2172","TLE_LINE2":"2 52286  53.2172 150.9661 0004062 323.2324 316.5137 15.70473961  8359","FILE":"3482681","RCS_SIZE":"LARGE","MEAN_MOTION_DDOT":"0.0000000000000","REV_AT_EPOCH":"835","PERIOD":"91.692","LAUNCH_DATE":"2022-04-21","REF_FRAME":"TEME","NORAD_CAT_ID":"52286","BSTAR":"-0.00609260000000","MEAN_MOTION_DOT":"-0.00702212","EPHEMERIS_TYPE":"0","SEMIMAJOR_AXIS":"6735.678","MEAN_ANOMALY":"316.5137","PERIAPSIS":"354.807","OBJECT_ID":"2022-041AB"},{"EPOCH":"2022-06-05T22:00:00.999936","ELEMENT_SET_NO":"999","GP_ID":"205449531","ECCENTRICITY":"0.00017130","APOAPSIS":"435.938","SITE":"AFETR","TIME_SYSTEM":"UTC","CLASSIFICATION_TYPE":"U","OBJECT_TYPE":"PAYLOAD","RA_OF_ASC_NODE":"154.3590","OBJECT_NAME":"STARLINK-3822","COUNTRY_CODE":"US","CENTER_NAME":"EARTH","ARG_OF_PERICENTER":"38.3871","TLE_LINE2":"2 52287  53.2174 154.3590 0001713  38.3871  82.5988 15.43846636  1307","INCLINATION":"53.2174","MEAN_ELEMENT_THEORY":"SGP4","TLE_LINE1":"1 52287U 22041AC  22156.91667824 -.00720949  00000-0 -16924-1 0  9998","MEAN_MOTION":"15.43846636","DECAY_DATE":null,"REF_FRAME":"TEME","LAUNCH_DATE":"2022-04-21","PERIOD":"93.274","REV_AT_EPOCH":"130","MEAN_MOTION_DDOT":"0.0000000000000","RCS_SIZE":"LARGE","FILE":"3482995","EPHEMERIS_TYPE":"0","MEAN_MOTION_DOT":"-0.00720949","BSTAR":"-0.01692400000000","NORAD_CAT_ID":"52287","PERIAPSIS":"433.604","OBJECT_ID":"2022-041AC","MEAN_ANOMALY":"82.5988","SEMIMAJOR_AXIS":"6812.906"},{"REF_FRAME":"TEME","LAUNCH_DATE":"2022-04-21","PERIOD":"91.692","MEAN_MOTION_DDOT":"0.0000000000000","REV_AT_EPOCH":"130","RCS_SIZE":"LARGE","FILE":"3482995","TLE_LINE2":"2 52288  53.2172 150.9668 0004510 315.9251 324.4458 15.70478346  1307","INCLINATION":"53.2172","MEAN_ELEMENT_THEORY":"SGP4","MEAN_MOTION":"15.70478346","TLE_LINE1":"1 52288U 22041AD  22156.91667824 -.00701774  00000-0 -60860-2 0  9993","DECAY_DATE":null,"OBJECT_ID":"2022-041AD","PERIAPSIS":"354.493","MEAN_ANOMALY":"324.4458","SEMIMAJOR_AXIS":"6735.666","MEAN_MOTION_DOT":"-0.00701774","EPHEMERIS_TYPE":"0","BSTAR":"-0.00608600000000","NORAD_CAT_ID":"52288","ELEMENT_SET_NO":"999","GP_ID":"205449303","APOAPSIS":"360.569","ECCENTRICITY":"0.00045100","EPOCH":"2022-06-05T22:00:00.999936","COUNTRY_CODE":"US","CENTER_NAME":"EARTH","ARG_OF_PERICENTER":"315.9251","SITE":"AFETR","TIME_SYSTEM":"UTC","CLASSIFICATION_TYPE":"U","RA_OF_ASC_NODE":"150.9668","OBJECT_TYPE":"PAYLOAD","OBJECT_NAME":"STARLINK-3776"},{"EPHEMERIS_TYPE":"0","MEAN_MOTION_DOT":"-0.00702295","BSTAR":"-0.00609760000000","NORAD_CAT_ID":"52289","OBJECT_ID":"2022-041AE","PERIAPSIS":"354.999","MEAN_ANOMALY":"312.7980","SEMIMAJOR_AXIS":"6735.718","TLE_LINE2":"2 52289  53.2172 150.9642 0003836 325.0737 312.7980 15.70460052  8358","INCLINATION":"53.2172","MEAN_ELEMENT_THEORY":"SGP4","MEAN_MOTION":"15.70460052","TLE_LINE1":"1 52289U 22041AE  22156.91667824 -.00702295  00000-0 -60976-2 0  9991","DECAY_DATE":null,"REF_FRAME":"TEME","LAUNCH_DATE":"2022-04-21","PERIOD":"91.693","MEAN_MOTION_DDOT":"0.0000000000000","REV_AT_EPOCH":"835","RCS_SIZE":"LARGE","FILE":"3482687","SITE":"AFETR","TIME_SYSTEM":"UTC","CLASSIFICATION_TYPE":"U","OBJECT_TYPE":"PAYLOAD","RA_OF_ASC_NODE":"150.9642","OBJECT_NAME":"STARLINK-3751","COUNTRY_CODE":"US","CENTER_NAME":"EARTH","ARG_OF_PERICENTER":"325.0737","EPOCH":"2022-06-05T22:00:00.999936","ELEMENT_SET_NO":"999","GP_ID":"205416757","APOAPSIS":"360.167","ECCENTRICITY":"0.00038360"},{"COUNTRY_CODE":"US","CENTER_NAME":"EARTH","ARG_OF_PERICENTER":"327.7659","SITE":"AFETR","TIME_SYSTEM":"UTC","CLASSIFICATION_TYPE":"U","OBJECT_TYPE":"PAYLOAD","RA_OF_ASC_NODE":"150.9684","OBJECT_NAME":"STARLINK-3772","ELEMENT_SET_NO":"999","GP_ID":"205416732","ECCENTRICITY":"0.00037410","APOAPSIS":"360.010","EPOCH":"2022-06-05T22:00:00.999936","PERIAPSIS":"354.970","OBJECT_ID":"2022-041AF","MEAN_ANOMALY":"314.4788","SEMIMAJOR_AXIS":"6735.625","MEAN_MOTION_DOT":"-0.00702615","EPHEMERIS_TYPE":"0","BSTAR":"-0.00609250000000","NORAD_CAT_ID":"52290","REF_FRAME":"TEME","LAUNCH_DATE":"2022-04-21","PERIOD":"91.691","MEAN_MOTION_DDOT":"0.0000000000000","REV_AT_EPOCH":"834","RCS_SIZE":"LARGE","FILE":"3482685","TLE_LINE2":"2 52290  53.2173 150.9684 0003741 327.7659 314.4788 15.70492730  8346","INCLINATION":"53.2173","MEAN_ELEMENT_THEORY":"SGP4","TLE_LINE1":"1 52290U 22041AF  22156.91667824 -.00702615  00000-0 -60925-2 0  9993","MEAN_MOTION":"15.70492730","DECAY_DATE":null},{"EPOCH":"2022-06-05T22:00:00.999936","ELEMENT_SET_NO":"999","GP_ID":"205416721","ECCENTRICITY":"0.00039600","APOAPSIS":"360.224","SITE":"AFETR","TIME_SYSTEM":"UTC","CLASSIFICATION_TYPE":"U","RA_OF_ASC_NODE":"150.9657","OBJECT_TYPE":"PAYLOAD","OBJECT_NAME":"STARLINK-3773","COUNTRY_CODE":"US","CENTER_NAME":"EARTH","ARG_OF_PERICENTER":"326.1257","TLE_LINE2":"2 52291  53.2172 150.9657 0003960 326.1257 312.9956 15.70469459  8359","INCLINATION":"53.2172","MEAN_ELEMENT_THEORY":"SGP4","MEAN_MOTION":"15.70469459","TLE_LINE1":"1 52291U 22041AG  22156.91667824 -.00702462  00000-0 -60964-2 0  9997","DECAY_DATE":null,"REF_FRAME":"TEME","LAUNCH_DATE":"2022-04-21","PERIOD":"91.692","REV_AT_EPOCH":"835","MEAN_MOTION_DDOT":"0.0000000000000","RCS_SIZE":"LARGE","FILE":"3482685","MEAN_MOTION_DOT":"-0.00702462","EPHEMERIS_TYPE":"0","BSTAR":"-0.00609640000000","NORAD_CAT_ID":"52291","OBJECT_ID":"2022-041AG","PERIAPSIS":"354.889","MEAN_ANOMALY":"312.9956","SEMIMAJOR_AXIS":"6735.691"},{"CENTER_NAME":"EARTH","COUNTRY_CODE":"US","ARG_OF_PERICENTER":"348.1057","TIME_SYSTEM":"UTC","SITE":"AFETR","OBJECT_NAME":"STARLINK-3753","RA_OF_ASC_NODE":"150.9683","OBJECT_TYPE":"PAYLOAD","CLASSIFICATION_TYPE":"U","ELEMENT_SET_NO":"999","APOAPSIS":"359.690","ECCENTRICITY":"0.00033170","GP_ID":"205416741","EPOCH":"2022-06-05T22:00:00.999936","PERIAPSIS":"355.222","OBJECT_ID":"2022-041AH","SEMIMAJOR_AXIS":"6735.591","MEAN_ANOMALY":"295.3873","NORAD_CAT_ID":"52292","BSTAR":"-0.00613530000000","MEAN_MOTION_DOT":"-0.00707360","EPHEMERIS_TYPE":"0","PERIOD":"91.690","LAUNCH_DATE":"2022-04-21","REF_FRAME":"TEME","FILE":"3482686","RCS_SIZE":"LARGE","REV_AT_EPOCH":"835","MEAN_MOTION_DDOT":"0.0000000000000","INCLINATION":"53.2173","TLE_LINE2":"2 52292  53.2173 150.9683 0003317 348.1057 295.3873 15.70504455  8356","DECAY_DATE":null,"TLE_LINE1":"1 52292U 22041AH  22156.91667824 -.00707360  00000-0 -61353-2 0  9993","MEAN_MOTION":"15.70504455","MEAN_ELEMENT_THEORY":"SGP4"},{"ARG_OF_PERICENTER":"324.6621","CENTER_NAME":"EARTH","COUNTRY_CODE":"US","OBJECT_NAME":"STARLINK-3771","RA_OF_ASC_NODE":"150.9678","OBJECT_TYPE":"PAYLOAD","CLASSIFICATION_TYPE":"U","TIME_SYSTEM":"UTC","SITE":"AFETR","ECCENTRICITY":"0.00042290","APOAPSIS":"360.365","GP_ID":"205416735","ELEMENT_SET_NO":"999","EPOCH":"2022-06-05T22:00:00.999936","SEMIMAJOR_AXIS":"6735.652","MEAN_ANOMALY":"316.3333","OBJECT_ID":"2022-041AJ","PERIAPSIS":"354.668","NORAD_CAT_ID":"52293","BSTAR":"-0.00609210000000","EPHEMERIS_TYPE":"0","MEAN_MOTION_DOT":"-0.00702469","FILE":"3482686","RCS_SIZE":"MEDIUM","MEAN_MOTION_DDOT":"0.0000000000000","REV_AT_EPOCH":"835","PERIOD":"91.692","LAUNCH_DATE":"2022-04-21","REF_FRAME":"TEME","DECAY_DATE":null,"TLE_LINE1":"1 52293U 22041AJ  22156.91667824 -.00702469  00000-0 -60921-2 0  9999","MEAN_MOTION":"15.70483385","MEAN_ELEMENT_THEORY":"SGP4","INCLINATION":"53.2172","TLE_LINE2":"2 52293  53.2172 150.9678 0004229 324.6621 316.3333 15.70483385  8352"},{"SEMIMAJOR_AXIS":"6735.579","MEAN_ANOMALY":"297.4170","OBJECT_ID":"2022-041AK","PERIAPSIS":"355.092","NORAD_CAT_ID":"52294","BSTAR":"-0.00613080000000","MEAN_MOTION_DOT":"-0.00707054","EPHEMERIS_TYPE":"0","FILE":"3482688","RCS_SIZE":"LARGE","REV_AT_EPOCH":"835","MEAN_MOTION_DDOT":"0.0000000000000","PERIOD":"91.690","LAUNCH_DATE":"2022-04-21","REF_FRAME":"TEME","DECAY_DATE":null,"MEAN_MOTION":"15.70508877","TLE_LINE1":"1 52294U 22041AK  22156.91667824 -.00707054  00000-0 -61308-2 0  9995","MEAN_ELEMENT_THEORY":"SGP4","INCLINATION":"53.2173","TLE_LINE2":"2 52294  53.2173 150.9690 0003492 346.7005 297.4170 15.70508877  8352","ARG_OF_PERICENTER":"346.7005","CENTER_NAME":"EARTH","COUNTRY_CODE":"US","OBJECT_NAME":"STARLINK-3777","OBJECT_TYPE":"PAYLOAD","RA_OF_ASC_NODE":"150.9690","CLASSIFICATION_TYPE":"U","TIME_SYSTEM":"UTC","SITE":"AFETR","APOAPSIS":"359.796","ECCENTRICITY":"0.00034920","GP_ID":"205417274","ELEMENT_SET_NO":"999","EPOCH":"2022-06-05T22:00:00.999936"}];
